{
  "type": "FeatureCollection",
  "features": [
    {
      "type": "Feature",
      "properties": {
        "norad_id": 39773,
        "name": "EUTELSAT 3B",
        "group": "eutelsat",
        "lat": 0.0275948341260537,
        "lon": 8.977812154403539,
        "alt_km": 35802.206081351535,
        "timestamp": "2025-12-02T19:35:50.233125+00:00",
        "meta_object_name": "EUTELSAT 3B",
        "meta_object_id": "2014-030A",
        "meta_epoch": "2025-12-02T08:39:46.962144",
        "meta_mean_motion": 1.00270599,
        "meta_eccentricity": 0.0004749,
        "meta_inclination": 0.063,
        "meta_ra_of_asc_node": 359.4396,
        "meta_arg_of_pericenter": 227.4285,
        "meta_mean_anomaly": 337.6427,
        "meta_ephemeris_type": 0,
        "meta_classification_type": "U",
        "meta_norad_cat_id": 39773,
        "meta_element_set_no": 999,
        "meta_rev_at_epoch": 4209,
        "meta_bstar": 0,
        "meta_mean_motion_dot": 4e-07,
        "meta_mean_motion_ddot": 0,
        "tle_line1": "1 39773U 14030A   25336.36096021  .00000040  00000+0  00000+0 0  9995",
        "tle_line2": "2 39773   0.0630 359.4396 0004749 227.4285 337.6427  1.00270599 42093"
      },
      "geometry": {
        "type": "Point",
        "coordinates": [
          8.977812154403539,
          0.0275948341260537
        ]
      }
    },
    {
      "type": "Feature",
      "properties": {
        "norad_id": 40425,
        "name": "EUTELSAT 115 WEST B",
        "group": "eutelsat",
        "lat": 0.005931466859078872,
        "lon": -109.05855866613784,
        "alt_km": 35788.47984443994,
        "timestamp": "2025-12-02T19:35:50.233137+00:00",
        "meta_object_name": "EUTELSAT 115 WEST B",
        "meta_object_id": "2015-010B",
        "meta_epoch": "2025-12-02T10:37:38.766720",
        "meta_mean_motion": 1.00269409,
        "meta_eccentricity": 4.88e-05,
        "meta_inclination": 0.017,
        "meta_ra_of_asc_node": 149.052,
        "meta_arg_of_pericenter": 249.23,
        "meta_mean_anomaly": 77.7769,
        "meta_ephemeris_type": 0,
        "meta_classification_type": "U",
        "meta_norad_cat_id": 40425,
        "meta_element_set_no": 999,
        "meta_rev_at_epoch": 3942,
        "meta_bstar": 0,
        "meta_mean_motion_dot": -4e-08,
        "meta_mean_motion_ddot": 0,
        "tle_line1": "1 40425U 15010B   25336.44280980 -.00000004  00000+0  00000+0 0  9999",
        "tle_line2": "2 40425   0.0170 149.0520 0000488 249.2300  77.7769  1.00269409 39428"
      },
      "geometry": {
        "type": "Point",
        "coordinates": [
          -109.05855866613784,
          0.005931466859078872
        ]
      }
    },
    {
      "type": "Feature",
      "properties": {
        "norad_id": 40875,
        "name": "EUTELSAT 8 WEST B",
        "group": "eutelsat",
        "lat": 0.029618050584583836,
        "lon": -2.100888418395772,
        "alt_km": 35790.29426169537,
        "timestamp": "2025-12-02T19:35:50.233148+00:00",
        "meta_object_name": "EUTELSAT 8 WEST B",
        "meta_object_id": "2015-039B",
        "meta_epoch": "2025-12-02T08:36:39.760128",
        "meta_mean_motion": 1.002715,
        "meta_eccentricity": 0.0004115,
        "meta_inclination": 0.0662,
        "meta_ra_of_asc_node": 345.0729,
        "meta_arg_of_pericenter": 269.1331,
        "meta_mean_anomaly": 298.4303,
        "meta_ephemeris_type": 0,
        "meta_classification_type": "U",
        "meta_norad_cat_id": 40875,
        "meta_element_set_no": 999,
        "meta_rev_at_epoch": 3768,
        "meta_bstar": 0,
        "meta_mean_motion_dot": -4.5e-07,
        "meta_mean_motion_ddot": 0,
        "tle_line1": "1 40875U 15039B   25336.35879352 -.00000045  00000+0  00000+0 0  9991",
        "tle_line2": "2 40875   0.0662 345.0729 0004115 269.1331 298.4303  1.00271500 37685"
      },
      "geometry": {
        "type": "Point",
        "coordinates": [
          -2.100888418395772,
          0.029618050584583836
        ]
      }
    },
    {
      "type": "Feature",
      "properties": {
        "norad_id": 41310,
        "name": "EUTELSAT 9B",
        "group": "eutelsat",
        "lat": -0.02554872410605911,
        "lon": 14.885554467941292,
        "alt_km": 35793.58791686717,
        "timestamp": "2025-12-02T19:35:50.233160+00:00",
        "meta_object_name": "EUTELSAT 9B",
        "meta_object_id": "2016-005A",
        "meta_epoch": "2025-12-02T08:41:24.307296",
        "meta_mean_motion": 1.00271004,
        "meta_eccentricity": 0.0004836,
        "meta_inclination": 0.0628,
        "meta_ra_of_asc_node": 74.6272,
        "meta_arg_of_pericenter": 189.4401,
        "meta_mean_anomaly": 306.7388,
        "meta_ephemeris_type": 0,
        "meta_classification_type": "U",
        "meta_norad_cat_id": 41310,
        "meta_element_set_no": 999,
        "meta_rev_at_epoch": 3614,
        "meta_bstar": 0,
        "meta_mean_motion_dot": 8.2e-07,
        "meta_mean_motion_ddot": 0,
        "tle_line1": "1 41310U 16005A   25336.36208689  .00000082  00000+0  00000+0 0  9990",
        "tle_line2": "2 41310   0.0628  74.6272 0004836 189.4401 306.7388  1.00271004 36147"
      },
      "geometry": {
        "type": "Point",
        "coordinates": [
          14.885554467941292,
          -0.02554872410605911
        ]
      }
    },
    {
      "type": "Feature",
      "properties": {
        "norad_id": 41382,
        "name": "EUTELSAT 65 WEST A",
        "group": "eutelsat",
        "lat": -0.0396616775322474,
        "lon": -59.32972438459587,
        "alt_km": 35777.87608856478,
        "timestamp": "2025-12-02T19:35:50.233172+00:00",
        "meta_object_name": "EUTELSAT 65 WEST A",
        "meta_object_id": "2016-014A",
        "meta_epoch": "2025-12-02T08:20:18.826368",
        "meta_mean_motion": 1.00271105,
        "meta_eccentricity": 0.0002719,
        "meta_inclination": 0.0509,
        "meta_ra_of_asc_node": 341.0284,
        "meta_arg_of_pericenter": 276.9507,
        "meta_mean_anomaly": 233.3555,
        "meta_ephemeris_type": 0,
        "meta_classification_type": "U",
        "meta_norad_cat_id": 41382,
        "meta_element_set_no": 999,
        "meta_rev_at_epoch": 3556,
        "meta_bstar": 0,
        "meta_mean_motion_dot": -2.56e-06,
        "meta_mean_motion_ddot": 0,
        "tle_line1": "1 41382U 16014A   25336.34744012 -.00000256  00000+0  00000+0 0  9996",
        "tle_line2": "2 41382   0.0509 341.0284 0002719 276.9507 233.3555  1.00271105 35563"
      },
      "geometry": {
        "type": "Point",
        "coordinates": [
          -59.32972438459587,
          -0.0396616775322474
        ]
      }
    },
    {
      "type": "Feature",
      "properties": {
        "norad_id": 41589,
        "name": "EUTELSAT 117 WEST B",
        "group": "eutelsat",
        "lat": 0.012732162707989056,
        "lon": -111.15410215922756,
        "alt_km": 35787.35299846833,
        "timestamp": "2025-12-02T19:35:50.233184+00:00",
        "meta_object_name": "EUTELSAT 117 WEST B",
        "meta_object_id": "2016-038B",
        "meta_epoch": "2025-12-02T10:37:38.766720",
        "meta_mean_motion": 1.0026853,
        "meta_eccentricity": 2.02e-05,
        "meta_inclination": 0.0102,
        "meta_ra_of_asc_node": 144.9746,
        "meta_arg_of_pericenter": 219.6495,
        "meta_mean_anomaly": 109.3395,
        "meta_ephemeris_type": 0,
        "meta_classification_type": "U",
        "meta_norad_cat_id": 41589,
        "meta_element_set_no": 999,
        "meta_rev_at_epoch": 3469,
        "meta_bstar": 0,
        "meta_mean_motion_dot": 9e-08,
        "meta_mean_motion_ddot": 0,
        "tle_line1": "1 41589U 16038B   25336.44280980  .00000009  00000+0  00000+0 0  9996",
        "tle_line2": "2 41589   0.0102 144.9746 0000202 219.6495 109.3395  1.00268530 34694"
      },
      "geometry": {
        "type": "Point",
        "coordinates": [
          -111.15410215922756,
          0.012732162707989056
        ]
      }
    },
    {
      "type": "Feature",
      "properties": {
        "norad_id": 42741,
        "name": "EUTELSAT 172B",
        "group": "eutelsat",
        "lat": 0.005500068202702852,
        "lon": 177.84230772071123,
        "alt_km": 35786.087608544614,
        "timestamp": "2025-12-02T19:35:50.233195+00:00",
        "meta_object_name": "EUTELSAT 172B",
        "meta_object_id": "2017-029B",
        "meta_epoch": "2025-12-02T09:32:38.561856",
        "meta_mean_motion": 1.00270978,
        "meta_eccentricity": 2.23e-05,
        "meta_inclination": 0.0165,
        "meta_ra_of_asc_node": 133.0464,
        "meta_arg_of_pericenter": 122.4326,
        "meta_mean_anomaly": 131.1829,
        "meta_ephemeris_type": 0,
        "meta_classification_type": "U",
        "meta_norad_cat_id": 42741,
        "meta_element_set_no": 999,
        "meta_rev_at_epoch": 3175,
        "meta_bstar": 0,
        "meta_mean_motion_dot": 1.5e-07,
        "meta_mean_motion_ddot": 0,
        "tle_line1": "1 42741U 17029B   25336.39766854  .00000015  00000+0  00000+0 0  9998",
        "tle_line2": "2 42741   0.0165 133.0464 0000223 122.4326 131.1829  1.00270978 31755"
      },
      "geometry": {
        "type": "Point",
        "coordinates": [
          177.84230772071123,
          0.005500068202702852
        ]
      }
    }
  ]
}